{
  "links" : {
    "next" : "https://api.nasa.gov/neo/rest/v1/feed?start_date=1999-02-23&end_date=1999-02-23&detailed=true&api_key=t0TVs3DtDT2H8Oy2Zy8m2eVrNsAVKAexjcZXUckd",
    "prev" : "https://api.nasa.gov/neo/rest/v1/feed?start_date=1999-02-21&end_date=1999-02-21&detailed=true&api_key=t0TVs3DtDT2H8Oy2Zy8m2eVrNsAVKAexjcZXUckd",
    "self" : "https://api.nasa.gov/neo/rest/v1/feed?start_date=1999-02-22&end_date=1999-02-22&detailed=true&api_key=t0TVs3DtDT2H8Oy2Zy8m2eVrNsAVKAexjcZXUckd"
  },
  "element_count" : 7,
  "near_earth_objects" : {
    "1999-02-22" : [ {
      "links" : {
        "self" : "https://api.nasa.gov/neo/rest/v1/neo/3764727?api_key=t0TVs3DtDT2H8Oy2Zy8m2eVrNsAVKAexjcZXUckd"
      },
      "neo_reference_id" : "3764727",
      "name" : "(2016 WF7)",
      "nasa_jpl_url" : "http://ssd.jpl.nasa.gov/sbdb.cgi?sstr=3764727",
      "absolute_magnitude_h" : 28.8,
      "estimated_diameter" : {
        "kilometers" : {
          "estimated_diameter_min" : 0.0046190746,
          "estimated_diameter_max" : 0.0103285648
        },
        "meters" : {
          "estimated_diameter_min" : 4.6190746028,
          "estimated_diameter_max" : 10.328564805
        },
        "miles" : {
          "estimated_diameter_min" : 0.002870159,
          "estimated_diameter_max" : 0.0064178706
        },
        "feet" : {
          "estimated_diameter_min" : 15.1544447199,
          "estimated_diameter_max" : 33.886368555
        }
      },
      "is_potentially_hazardous_asteroid" : false,
      "close_approach_data" : [ {
        "close_approach_date" : "1999-02-22",
        "epoch_date_close_approach" : 919670400000,
        "relative_velocity" : {
          "kilometers_per_second" : "8.7934012964",
          "kilometers_per_hour" : "31656.2446671165",
          "miles_per_hour" : "19669.9593599647"
        },
        "miss_distance" : {
          "astronomical" : "0.0746260929",
          "lunar" : "29.0295505524",
          "kilometers" : "11163905",
          "miles" : "6936929"
        },
        "orbiting_body" : "Earth"
      } ],
      "orbital_data" : {
        "orbit_id" : "6",
        "orbit_determination_date" : "2017-04-06 08:21:58",
        "orbit_uncertainty" : "7",
        "minimum_orbit_intersection" : ".0033147",
        "jupiter_tisserand_invariant" : "6.754",
        "epoch_osculation" : "2458000.5",
        "eccentricity" : ".2379077525515878",
        "semi_major_axis" : ".8732832979942745",
        "inclination" : ".6467351461787517",
        "ascending_node_longitude" : "76.2381764637944",
        "orbital_period" : "298.0788472742083",
        "perihelion_distance" : ".6655224312276181",
        "perihelion_argument" : "208.6318518983579",
        "aphelion_distance" : "1.081044164760931",
        "perihelion_time" : "2457918.713005080428",
        "mean_anomaly" : "98.7769458996879",
        "mean_motion" : "1.207734139111285",
        "equinox" : "J2000"
      }
    } ]
  }
}